{
    "links": {
        "self": "http://www.neowsapp.com/rest/v1/neo/3653904?api_key=iIulBulltgU6a56xZRHN4H3l9WmuAYTsLGpBGhQ2"
    },
    "id": "3653904",
    "neo_reference_id": "3653904",
    "name": "(2013 WV43)",
    "designation": "2013 WV43",
    "nasa_jpl_url": "http://ssd.jpl.nasa.gov/sbdb.cgi?sstr=3653904",
    "absolute_magnitude_h": 26.8,
    "estimated_diameter": {
        "kilometers": {
            "estimated_diameter_min": 0.0116025908,
            "estimated_diameter_max": 0.0259441818
        },
        "meters": {
            "estimated_diameter_min": 11.6025908209,
            "estimated_diameter_max": 25.9441817907
        },
        "miles": {
            "estimated_diameter_min": 0.0072095135,
            "estimated_diameter_max": 0.0161209622
        },
        "feet": {
            "estimated_diameter_min": 38.066244069,
            "estimated_diameter_max": 85.1187093863
        }
    },
    "is_potentially_hazardous_asteroid": false,
    "close_approach_data": [
        {
            "close_approach_date": "2013-12-03",
            "close_approach_date_full": "2013-Dec-03 04:04",
            "epoch_date_close_approach": 1386043440000,
            "relative_velocity": {
                "kilometers_per_second": "8.7628876345",
                "kilometers_per_hour": "31546.3954840383",
                "miles_per_hour": "19601.7033495126"
            },
            "miss_distance": {
                "astronomical": "0.0243376426",
                "lunar": "9.4673429714",
                "kilometers": "3640859.493781262",
                "miles": "2262325.1840229356"
            },
            "orbiting_body": "Earth"
        }
    ],
    "orbital_data": {
        "orbit_id": "6",
        "orbit_determination_date": "2017-04-06 08:43:34",
        "first_observation_date": "2013-11-26",
        "last_observation_date": "2013-11-29",
        "data_arc_in_days": 3,
        "observations_used": 14,
        "orbit_uncertainty": "8",
        "minimum_orbit_intersection": ".020817",
        "jupiter_tisserand_invariant": "3.895",
        "epoch_osculation": "2456623.5",
        "eccentricity": ".4726078274718326",
        "semi_major_axis": "1.819435247605815",
        "inclination": "6.773306477878164",
        "ascending_node_longitude": "65.30015810237788",
        "orbital_period": "896.4030650172043",
        "perihelion_distance": ".9595559080091549",
        "perihelion_argument": "36.51923510481524",
        "aphelion_distance": "2.679314587202475",
        "perihelion_time": "2456654.114219405474",
        "mean_anomaly": "347.7051748079876",
        "mean_motion": ".4016050525140615",
        "equinox": "J2000",
        "orbit_class": {
            "orbit_class_type": "APO",
            "orbit_class_description": "Near-Earth asteroid orbits which cross the Earth’s orbit similar to that of 1862 Apollo",
            "orbit_class_range": "a (semi-major axis) > 1.0 AU; q (perihelion) < 1.017 AU"
        }
    },
    "is_sentry_object": false
}